NORAD_CAT_ID,OBJECT_NAME,OBJECT_TYPE,EPOCH,MEAN_MOTION,ECCENTRICITY,INCLINATION,RA_OF_ASC_NODE,ARG_OF_PERICENTER,MEAN_ANOMALY,BSTAR,MEAN_MOTION_DOT,MEAN_MOTION_DDOT,TLE_LINE0,TLE_LINE1,TLE_LINE2,SEMIMAJOR_AXIS,PERIOD,APOGEE,PERIGEE,DECAYED
50202.0,STARLINK-3256,PAYLOAD,2023-04-17 12:43:55,15.08835474,9.89e-05,53.216,304.8963,102.1692,257.941,7.2291e-05,8.63e-06,0.0,0 STARLINK-3256,1 50202U 21125AY  23107.53050722  .00000863  00000-0  72291-4 0  9999,2 50202  53.2160 304.8963 0000989 102.1692 257.9410 15.08835474 77139,6917.894,95.438,540.443,539.075,0.0
50202.0,STARLINK-3256,PAYLOAD,2023-04-17 19:05:28,15.08838645,9.87e-05,53.2158,303.7066,94.3324,265.7781,0.00011857,1.6e-05,0.0,0 STARLINK-3256,1 50202U 21125AY  23107.79546660  .00001600  00000-0  11857-3 0  9998,2 50202  53.2158 303.7066 0000987  94.3324 265.7781 15.08838645 76691,6917.885,95.438,540.432,539.067,0.0
50202.0,STARLINK-3256,PAYLOAD,2023-04-17 20:40:51,15.08840572,0.0001049,53.2159,303.4095,89.0745,271.0368,0.00014926,2.089e-05,0.0,0 STARLINK-3256,1 50202U 21125AY  23107.86170641  .00002089  00000-0  14926-3 0  9990,2 50202  53.2159 303.4095 0001049  89.0745 271.0368 15.08840572 77187,6917.879,95.438,540.469,539.018,0.0
50202.0,STARLINK-3256,PAYLOAD,2023-04-18 06:13:10,15.0884127,0.0001056,53.2152,301.624,76.9801,283.1309,0.00011589,1.557e-05,0.0,0 STARLINK-3256,1 50202U 21125AY  23108.25914659  .00001557  00000-0  11589-3 0  9990,2 50202  53.2152 301.6240 0001056  76.9801 283.1309 15.08841270 77240,6917.877,95.437,540.472,539.011,0.0
50202.0,STARLINK-3256,PAYLOAD,2023-04-18 18:56:15,15.08842123,0.000107,53.2152,299.2451,69.8853,290.2254,0.00014382,2.002e-05,0.0,0 STARLINK-3256,1 50202U 21125AY  23108.78906725  .00002002  00000-0  14382-3 0  9993,2 50202  53.2152 299.2451 0001070  69.8853 290.2254 15.08842123 77325,6917.874,95.437,540.479,538.999,0.0
50202.0,STARLINK-3256,PAYLOAD,2023-04-19 12:25:29,15.0884455,0.0001029,53.2138,295.9741,66.1248,293.9852,0.0001123,1.5e-05,0.0,0 STARLINK-3256,1 50202U 21125AY  23109.51770542  .00001500  00000-0  11230-3 0  9992,2 50202  53.2138 295.9741 0001029  66.1248 293.9852 15.08844550 77438,6917.866,95.437,540.443,539.02,0.0
50202.0,STARLINK-3256,PAYLOAD,2023-04-19 18:47:01,15.08849868,9.42e-05,53.2134,294.7847,67.351,292.7582,0.00017738,2.537e-05,0.0,0 STARLINK-3256,1 50202U 21125AY  23109.78266102  .00002537  00000-0  17738-3 0  9993,2 50202  53.2134 294.7847 0000942  67.3510 292.7582 15.08849868 77474,6917.85,95.437,540.367,539.064,0.0
50202.0,STARLINK-3256,PAYLOAD,2023-04-20 15:27:03,15.08837941,8.9e-05,53.2144,290.9179,88.4997,271.6097,3.3288e-05,2.42e-06,0.0,0 STARLINK-3256,1 50202U 21125AY  23110.64378600  .00000242  00000-0  33288-4 0  9997,2 50202  53.2144 290.9179 0000890  88.4997 271.6097 15.08837941 77607,6917.887,95.438,540.367,539.136,0.0
50202.0,STARLINK-3256,PAYLOAD,2023-04-20 23:23:58,15.08847658,9.04e-05,53.2156,289.4312,86.5321,273.5774,5.3748e-05,5.68e-06,0.0,0 STARLINK-3256,1 50202U 21125AY  23110.97498027  .00000568  00000-0  53748-4 0  9993,2 50202  53.2156 289.4312 0000904  86.5321 273.5774 15.08847658 77652,6917.857,95.437,540.347,539.097,0.0
50202.0,STARLINK-3256,PAYLOAD,2023-04-21 18:28:36,15.08838639,9.36e-05,53.2159,285.864,82.5661,277.5437,4.7889e-06,-2.12e-06,0.0,0 STARLINK-3256,1 50202U 21125AY  23111.76986830 -.00000212  00000-0  47889-5 0  9992,2 50202  53.2159 285.8640 0000936  82.5661 277.5437 15.08838639 77296,6917.885,95.438,540.397,539.102,0.0
50202.0,STARLINK-3256,PAYLOAD,2023-04-21 21:39:22,15.08846345,9.74e-05,53.2159,285.2676,88.3961,271.7142,3.4039e-05,2.54e-06,0.0,0 STARLINK-3256,1 50202U 21125AY  23111.90234160  .00000254  00000-0  34039-4 0  9997,2 50202  53.2159 285.2676 0000974  88.3961 271.7142 15.08846345 77795,6917.861,95.437,540.4,539.052,0.0
50202.0,STARLINK-3256,PAYLOAD,2023-04-21 23:14:45,15.08851042,9.24e-05,53.2155,284.9699,91.2302,268.8796,7.8934e-05,9.69e-06,0.0,0 STARLINK-3256,1 50202U 21125AY  23111.96857731  .00000969  00000-0  78934-4 0  9993,2 50202  53.2155 284.9699 0000924  91.2302 268.8796 15.08851042 77320,6917.847,95.437,540.351,539.072,0.0
50202.0,STARLINK-3256,PAYLOAD,2023-04-22 11:57:51,15.0883489,7.56e-05,53.2157,282.5905,88.2571,271.8508,2.2779e-05,7.5e-07,0.0,0 STARLINK-3256,1 50202U 21125AY  23112.49851144  .00000075  00000-0  22779-4 0  9998,2 50202  53.2157 282.5905 0000756  88.2571 271.8508 15.08834890 77881,6917.896,95.438,540.284,539.238,0.0
50202.0,STARLINK-3256,PAYLOAD,2023-04-22 13:33:14,15.08841167,9.3e-05,53.2157,282.2934,91.9602,268.1496,8.1394e-05,1.008e-05,0.0,0 STARLINK-3256,1 50202U 21125AY  23112.56474674  .00001008  00000-0  81394-4 0  9990,2 50202  53.2157 282.2934 0000930  91.9602 268.1496 15.08841167 77419,6917.877,95.437,540.385,539.098,0.0
50202.0,STARLINK-3256,PAYLOAD,2023-04-22 19:54:46,15.0884947,9.83e-05,53.2145,281.1045,94.5452,265.5653,0.00019339,2.792e-05,0.0,0 STARLINK-3256,1 50202U 21125AY  23112.82970148  .00002792  00000-0  19339-3 0  9996,2 50202  53.2145 281.1045 0000983  94.5452 265.5653 15.08849470 77935,6917.851,95.437,540.396,539.036,0.0
50202.0,STARLINK-3256,PAYLOAD,2023-04-22 21:30:09,15.08851437,9.61e-05,53.2145,280.8068,92.7007,267.4095,0.00022674,3.324e-05,0.0,0 STARLINK-3256,1 50202U 21125AY  23112.89594056  .00003324  00000-0  22674-3 0  9991,2 50202  53.2145 280.8068 0000961  92.7007 267.4095 15.08851437 77463,6917.845,95.437,540.375,539.046,0.0
50202.0,STARLINK-3256,PAYLOAD,2023-04-23 07:02:29,15.08832293,0.0001577,53.2144,279.0224,71.109,289.0073,-6.5753e-05,-1.334e-05,0.0,0 STARLINK-3256,1 50202U 21125AY  23113.29339210 -.00001334  00000-0 -65753-4 0  9992,2 50202  53.2144 279.0224 0001577  71.1090 289.0073 15.08832293 77525,6917.904,95.438,540.86,538.678,0.0
50202.0,STARLINK-3256,PAYLOAD,2023-04-23 11:48:38,15.08831148,0.000111,53.2147,278.1301,91.1086,269.0034,-0.00010155,-1.903e-05,0.0,0 STARLINK-3256,1 50202U 21125AY  23113.49211309 -.00001903  00000-0 -10155-3 0  9999,2 50202  53.2147 278.1301 0001110  91.1086 269.0034 15.08831148 78034,6917.907,95.438,540.54,539.005,0.0
50202.0,STARLINK-3256,PAYLOAD,2023-04-23 19:45:33,15.08841155,0.0001149,53.2146,276.6433,90.5317,269.5807,6.9781e-05,8.23e-06,0.0,0 STARLINK-3256,1 50202U 21125AY  23113.82330969  .00000823  00000-0  69781-4 0  9998,2 50202  53.2146 276.6433 0001149  90.5317 269.5807 15.08841155 78081,6917.877,95.437,540.537,538.947,0.0
50202.0,STARLINK-3256,PAYLOAD,2023-04-24 03:42:29,15.08860834,0.0001088,53.2147,275.1563,92.8204,267.2913,0.00039661,6.033e-05,0.0,0 STARLINK-3256,1 50202U 21125AY  23114.15450298  .00006033  00000-0  39661-3 0  9995,2 50202  53.2147 275.1563 0001088  92.8204 267.2913 15.08860834 77652,6917.817,95.436,540.434,538.929,0.0
50202.0,STARLINK-3256,PAYLOAD,2023-04-25 09:54:49,15.08843402,0.0001206,53.2142,269.5071,91.4151,268.6979,0.00024892,3.676e-05,0.0,0 STARLINK-3256,1 50202U 21125AY  23115.41306940  .00003676  00000-0  24892-3 0  9999,2 50202  53.2142 269.5071 0001206  91.4151 268.6979 15.08843402 77846,6917.87,95.437,540.569,538.901,0.0
50202.0,STARLINK-3256,PAYLOAD,2023-04-26 12:56:24,15.08829507,9.83e-05,53.2143,264.4526,296.7224,63.3667,0.00030639,4.59e-05,0.0,0 STARLINK-3256,1 50202U 21125AY  23116.53916743  .00004590  00000-0  30639-3 0  9993,2 50202  53.2143 264.4526 0000983 296.7224  63.3667 15.08829507 78494,6917.912,95.438,540.457,539.097,0.0
50202.0,STARLINK-3256,PAYLOAD,2023-04-26 16:07:10,15.08837216,0.000147,53.214,263.859,63.2934,296.8208,0.00013802,1.909e-05,0.0,0 STARLINK-3256,1 50202U 21125AY  23116.67164826  .00001909  00000-0  13802-3 0  9999,2 50202  53.2140 263.8590 0001470  63.2934 296.8208 15.08837216 78515,6917.889,95.438,540.771,538.737,0.0
50202.0,STARLINK-3256,PAYLOAD,2023-04-27 03:14:52,15.08731922,0.0001877,53.2147,261.7753,46.5725,313.5423,0.0017877,0.00028194,0.0,0 STARLINK-3256,1 50202U 21125AY  23117.13532519  .00028194  00000-0  17877-2 0  9999,2 50202  53.2147 261.7753 0001877  46.5725 313.5423 15.08731922 78101,6918.211,95.444,541.374,538.777,0.0
50202.0,STARLINK-3256,PAYLOAD,2023-04-27 09:36:25,15.08743151,0.0001801,53.2148,260.5859,30.0501,330.0594,0.0018266,0.00028825,0.0,0 STARLINK-3256,1 50202U 21125AY  23117.40029916  .00028825  00000-0  18266-2 0  9995,2 50202  53.2148 260.5859 0001801  30.0501 330.0594 15.08743151 78620,6918.176,95.444,541.287,538.795,0.0
50202.0,STARLINK-3256,PAYLOAD,2023-04-27 17:33:22,15.08774618,0.0001885,53.2146,259.0998,44.2347,315.8795,0.0016808,0.00026515,0.0,0 STARLINK-3256,1 50202U 21125AY  23117.73150496  .00026515  00000-0  16808-2 0  9993,2 50202  53.2146 259.0998 0001885  44.2347 315.8795 15.08774618 78190,6918.08,95.442,541.249,538.641,0.0
50202.0,STARLINK-3256,PAYLOAD,2023-04-27 23:54:51,15.08864329,0.0001825,53.2132,257.913,41.1108,319.0022,0.00026836,3.988e-05,0.0,0 STARLINK-3256,1 50202U 21125AY  23117.99643238  .00003988  00000-0  26836-3 0  9994,2 50202  53.2132 257.9130 0001825  41.1108 319.0022 15.08864329 78238,6917.806,95.436,540.934,538.409,0.0
50202.0,STARLINK-3256,PAYLOAD,2023-04-29 04:31:48,15.0885312,0.0001774,53.2197,252.5629,9.037,351.0653,-0.00031338,-5.274e-05,0.0,0 STARLINK-3256,1 50202U 21125AY  23119.18875210 -.00005274  00000-0 -31338-3 0  9999,2 50202  53.2197 252.5629 0001774   9.0370 351.0653 15.08853120 78413,6917.84,95.437,540.933,538.478,0.0
50202.0,STARLINK-3256,PAYLOAD,2023-04-29 12:28:44,15.08842647,0.0001212,53.2149,251.0711,54.7514,305.3591,-6.2345e-05,-1.28e-05,0.0,0 STARLINK-3256,1 50202U 21125AY  23119.51995464 -.00001280  00000-0 -62345-4 0  9996,2 50202  53.2149 251.0711 0001212  54.7514 305.3591 15.08842647 78943,6917.872,95.437,540.576,538.899,0.0
50202.0,STARLINK-3256,PAYLOAD,2023-04-30 13:54:54,15.08838036,0.0001171,53.215,246.3127,76.0817,284.0305,0.00011348,1.519e-05,0.0,0 STARLINK-3256,1 50202U 21125AY  23120.57979572  .00001519  00000-0  11348-3 0  9995,2 50202  53.2150 246.3127 0001171  76.0817 284.0305 15.08838036 78628,6917.886,95.438,540.561,538.941,0.0
